{"fetched_at":"2026-03-29T02:12:04Z","count":15717,"tles":[{"name":"STARLINK-35365","line1":"1 66186U 25243K   26087.58200905  .00028469  00000+0  96920-3 0  9992","line2":"2 66186  53.1596 157.6884 0001119  74.1695 285.9429 15.30214943 23546","category":"Starlink"}]}